[{"OBJECT_NAME":"ICEYE-X7","OBJECT_ID":"2020-068L","EPOCH":"2026-03-09T22:52:28.702272","MEAN_MOTION":15.29152508,"ECCENTRICITY":0.00068409,"INCLINATION":97.7412,"RA_OF_ASC_NODE":31.2076,"ARG_OF_PERICENTER":332.3045,"MEAN_ANOMALY":27.7829,"EPHEMERIS_TYPE":0,"CLASSIFICATION_TYPE":"U","NORAD_CAT_ID":46496,"ELEMENT_SET_NO":999,"REV_AT_EPOCH":29961,"BSTAR":0.0005654802,"MEAN_MOTION_DOT":0.00015947,"MEAN_MOTION_DDOT":0},{"OBJECT_NAME":"STARLINK-32030","OBJECT_ID":"2024-183E","EPOCH":"2026-03-09T12:18:39.546144","MEAN_MOTION":15.30184406,"ECCENTRICITY":0.00014301,"INCLINATION":53.1588,"RA_OF_ASC_NODE":143.4025,"ARG_OF_PERICENTER":88.522,"MEAN_ANOMALY":271.5945,"EPHEMERIS_TYPE":0,"CLASSIFICATION_TYPE":"U","NORAD_CAT_ID":61513,"ELEMENT_SET_NO":999,"REV_AT_EPOCH":7962,"BSTAR":0.00024694327,"MEAN_MOTION_DOT":6.958e-5,"MEAN_MOTION_DDOT":0}]
